{"type": "FeatureCollection", "features": [ {"type": "Feature", "properties": {"norad_id": 39634, "name": "SENTINEL-1A", "group": "resource", "lat": -11.016308488949884, "lon": 7.612215486949424, "alt_km": 700.1570551123823, "timestamp": "2025-12-26T23:26:41.810593+00:00", "meta": {"OBJECT_NAME": "SENTINEL-1A", "OBJECT_ID": "2014-016A", "EPOCH": "2025-12-26T18:33:31.283136", "MEAN_MOTION": 14.59198951, "ECCENTRICITY": 0.0001273, "INCLINATION": 98.1805, "RA_OF_ASC_NODE": 5.8069, "ARG_OF_PERICENTER": 85.6362, "MEAN_ANOMALY": 274.4983, "EPHEMERIS_TYPE": 0, "CLASSIFICATION_TYPE": "U", "NORAD_CAT_ID": 39634, "ELEMENT_SET_NO": 999, "REV_AT_EPOCH": 62487, "BSTAR": -3.3418e-05, "MEAN_MOTION_DOT": -2.03e-06, "MEAN_MOTION_DDOT": 0}, "tle": {"line1": "1 39634U 14016A   25360.77327874 -.00000203  00000+0 -33418-4 0  9997", "line2": "2 39634  98.1805   5.8069 0001273  85.6362 274.4983 14.59198951624875"}}, "geometry": {"type": "Point", "coordinates": [7.612215486949424, -11.016308488949884]}}, {"type": "Feature", "properties": {"norad_id": 39731, "name": "KAZEOSAT 1", "group": "resource", "lat": 12.990594584581414, "lon": -105.49679408919027, "alt_km": 752.5148146229585, "timestamp": "2025-12-26T23:26:41.810607+00:00", "meta": {"OBJECT_NAME": "KAZEOSAT 1", "OBJECT_ID": "2014-024A", "EPOCH": "2025-12-26T17:40:42.774816", "MEAN_MOTION": 14.42070719, "ECCENTRICITY": 0.0001232, "INCLINATION": 98.3412, "RA_OF_ASC_NODE": 72.3288, "ARG_OF_PERICENTER": 95.2569, "MEAN_ANOMALY": 264.8761, "EPHEMERIS_TYPE": 0, "CLASSIFICATION_TYPE": "U", "NORAD_CAT_ID": 39731, "ELEMENT_SET_NO": 999, "REV_AT_EPOCH": 61370, "BSTAR": 0.00011509, "MEAN_MOTION_DOT": 3.35e-06, "MEAN_MOTION_DDOT": 0}, "tle": {"line1": "1 39731U 14024A   25360.73660619  .00000335  00000+0  11509-3 0  9997", "line2": "2 39731  98.3412  72.3288 0001232  95.2569 264.8761 14.42070719613702"}}, "geometry": {"type": "Point", "coordinates": [-105.49679408919027, 12.990594584581414]}}, {"type": "Feature", "properties": {"norad_id": 39766, "name": "ALOS-2", "group": "resource", "lat": 14.978322600792893, "lon": -82.24549415171396, "alt_km": 631.4539688253053, "timestamp": "2025-12-26T23:26:41.810620+00:00", "meta": {"OBJECT_NAME": "ALOS-2", "OBJECT_ID": "2014-029A", "EPOCH": "2025-12-26T17:49:59.532960", "MEAN_MOTION": 14.79476014, "ECCENTRICITY": 0.0001374, "INCLINATION": 97.9215, "RA_OF_ASC_NODE": 95.3892, "ARG_OF_PERICENTER": 99.9103, "MEAN_ANOMALY": 260.2264, "EPHEMERIS_TYPE": 0, "CLASSIFICATION_TYPE": "U", "NORAD_CAT_ID": 39766, "ELEMENT_SET_NO": 999, "REV_AT_EPOCH": 62608, "BSTAR": 0.00034107, "MEAN_MOTION_DOT": 2.497e-05, "MEAN_MOTION_DDOT": 0}, "tle": {"line1": "1 39766U 14029A   25360.74305015  .00002497  00000+0  34107-3 0  9997", "line2": "2 39766  97.9215  95.3892 0001374  99.9103 260.2264 14.79476014626085"}}, "geometry": {"type": "Point", "coordinates": [-82.24549415171396, 14.978322600792893]}}, {"type": "Feature", "properties": {"norad_id": 40010, "name": "KAZEOSAT 2", "group": "resource", "lat": 6.441823115144505, "lon": -156.3019674892945, "alt_km": 620.5881152636266, "timestamp": "2025-12-26T23:26:41.810630+00:00", "meta": {"OBJECT_NAME": "KAZEOSAT 2", "OBJECT_ID": "2014-033A", "EPOCH": "2025-12-26T16:56:52.439136", "MEAN_MOTION": 14.85188903, "ECCENTRICITY": 0.0008828, "INCLINATION": 97.5496, "RA_OF_ASC_NODE": 204.2994, "ARG_OF_PERICENTER": 159.2487, "MEAN_ANOMALY": 200.9089, "EPHEMERIS_TYPE": 0, "CLASSIFICATION_TYPE": "U", "NORAD_CAT_ID": 40010, "ELEMENT_SET_NO": 999, "REV_AT_EPOCH": 62335, "BSTAR": 5.2528e-05, "MEAN_MOTION_DOT": 4e-06, "MEAN_MOTION_DDOT": 0}, "tle": {"line1": "1 40010U 14033A   25360.70616249  .00000400  00000+0  52528-4 0  9996", "line2": "2 40010  97.5496 204.2994 0008828 159.2487 200.9089 14.85188903623353"}}, "geometry": {"type": "Point", "coordinates": [-156.3019674892945, 6.441823115144505]}}, {"type": "Feature", "properties": {"norad_id": 40011, "name": "HODOYOSHI-4", "group": "resource", "lat": -33.54789986159844, "lon": 4.1195717669282645, "alt_km": 603.4476620863325, "timestamp": "2025-12-26T23:26:41.810639+00:00", "meta": {"OBJECT_NAME": "HODOYOSHI-4", "OBJECT_ID": "2014-033B", "EPOCH": "2025-12-26T19:15:34.729056", "MEAN_MOTION": 14.87531679, "ECCENTRICITY": 0.0024279, "INCLINATION": 97.5412, "RA_OF_ASC_NODE": 188.9933, "ARG_OF_PERICENTER": 153.9849, "MEAN_ANOMALY": 206.2594, "EPHEMERIS_TYPE": 0, "CLASSIFICATION_TYPE": "U", "NORAD_CAT_ID": 40011, "ELEMENT_SET_NO": 999, "REV_AT_EPOCH": 62317, "BSTAR": 0.00026553, "MEAN_MOTION_DOT": 2.37e-05, "MEAN_MOTION_DDOT": 0}, "tle": {"line1": "1 40011U 14033B   25360.80248529  .00002370  00000+0  26553-3 0  9996", "line2": "2 40011  97.5412 188.9933 0024279 153.9849 206.2594 14.87531679623178"}}, "geometry": {"type": "Point", "coordinates": [4.1195717669282645, -33.54789986159844]}}, {"type": "Feature", "properties": {"norad_id": 40013, "name": "DEIMOS-2", "group": "resource", "lat": -66.71340625360978, "lon": -105.60711950504144, "alt_km": 596.7311564038291, "timestamp": "2025-12-26T23:26:41.810648+00:00", "meta": {"OBJECT_NAME": "DEIMOS-2", "OBJECT_ID": "2014-033D", "EPOCH": "2025-12-26T17:18:53.832960", "MEAN_MOTION": 14.93029657, "ECCENTRICITY": 0.0001402, "INCLINATION": 97.6049, "RA_OF_ASC_NODE": 236.0608, "ARG_OF_PERICENTER": 112.7291, "MEAN_ANOMALY": 247.4077, "EPHEMERIS_TYPE": 0, "CLASSIFICATION_TYPE": "U", "NORAD_CAT_ID": 40013, "ELEMENT_SET_NO": 999, "REV_AT_EPOCH": 61198, "BSTAR": 8.7546e-05, "MEAN_MOTION_DOT": 8.56e-06, "MEAN_MOTION_DDOT": 0}, "tle": {"line1": "1 40013U 14033D   25360.72145640  .00000856  00000+0  87546-4 0  9996", "line2": "2 40013  97.6049 236.0608 0001402 112.7291 247.4077 14.93029657611982"}}, "geometry": {"type": "Point", "coordinates": [-105.60711950504144, -66.71340625360978]}}, {"type": "Feature", "properties": {"norad_id": 40015, "name": "HODOYOSHI-3", "group": "resource", "lat": 2.015769493381737, "lon": 165.9237508824067, "alt_km": 638.5716689532073, "timestamp": "2025-12-26T23:26:41.810658+00:00", "meta": {"OBJECT_NAME": "HODOYOSHI-3", "OBJECT_ID": "2014-033F", "EPOCH": "2025-12-26T16:57:59.278176", "MEAN_MOTION": 14.84853935, "ECCENTRICITY": 0.0032641, "INCLINATION": 97.6208, "RA_OF_ASC_NODE": 165.9356, "ARG_OF_PERICENTER": 200.5721, "MEAN_ANOMALY": 159.4182, "EPHEMERIS_TYPE": 0, "CLASSIFICATION_TYPE": "U", "NORAD_CAT_ID": 40015, "ELEMENT_SET_NO": 999, "REV_AT_EPOCH": 62202, "BSTAR": 0.00020946, "MEAN_MOTION_DOT": 1.744e-05, "MEAN_MOTION_DDOT": 0}, "tle": {"line1": "1 40015U 14033F   25360.70693609  .00001744  00000+0  20946-3 0  9996", "line2": "2 40015  97.6208 165.9356 0032641 200.5721 159.4182 14.84853935622024"}}, "geometry": {"type": "Point", "coordinates": [165.9237508824067, 2.015769493381737]}}, {"type": "Feature", "properties": {"norad_id": 40053, "name": "SPOT 7", "group": "resource", "lat": -66.21868959272929, "lon": 81.54967638739609, "alt_km": 698.8676730187926, "timestamp": "2025-12-26T23:26:41.810667+00:00", "meta": {"OBJECT_NAME": "SPOT 7", "OBJECT_ID": "2014-034A", "EPOCH": "2025-12-26T18:49:18.933024", "MEAN_MOTION": 14.60751791, "ECCENTRICITY": 0.0001501, "INCLINATION": 98.0883, "RA_OF_ASC_NODE": 62.5346, "ARG_OF_PERICENTER": 79.7707, "MEAN_ANOMALY": 280.3663, "EPHEMERIS_TYPE": 0, "CLASSIFICATION_TYPE": "U", "NORAD_CAT_ID": 40053, "ELEMENT_SET_NO": 999, "REV_AT_EPOCH": 61196, "BSTAR": 0.00015372, "MEAN_MOTION_DOT": 7.04e-06, "MEAN_MOTION_DDOT": 0}, "tle": {"line1": "1 40053U 14034A   25360.78424691  .00000704  00000+0  15372-3 0  9992", "line2": "2 40053  98.0883  62.5346 0001501  79.7707 280.3663 14.60751791611962"}}, "geometry": {"type": "Point", "coordinates": [81.54967638739609, -66.21868959272929]}}, {"type": "Feature", "properties": {"norad_id": 40072, "name": "SKYSAT-B", "group": "resource", "lat": 29.746314546929504, "lon": 130.25857915927295, "alt_km": 600.9371305320801, "timestamp": "2025-12-26T23:26:41.810676+00:00", "meta": {"OBJECT_NAME": "SKYSAT-B", "OBJECT_ID": "2014-037D", "EPOCH": "2025-12-26T14:42:05.131296", "MEAN_MOTION": 14.87376812, "ECCENTRICITY": 0.0006873, "INCLINATION": 98.3629, "RA_OF_ASC_NODE": 305.0527, "ARG_OF_PERICENTER": 111.8235, "MEAN_ANOMALY": 248.3711, "EPHEMERIS_TYPE": 0, "CLASSIFICATION_TYPE": "U", "NORAD_CAT_ID": 40072, "ELEMENT_SET_NO": 999, "REV_AT_EPOCH": 62030, "BSTAR": 0.00022156, "MEAN_MOTION_DOT": 1.942e-05, "MEAN_MOTION_DDOT": 0}, "tle": {"line1": "1 40072U 14037D   25360.61255939  .00001942  00000+0  22156-3 0  9998", "line2": "2 40072  98.3629 305.0527 0006873 111.8235 248.3711 14.87376812620303"}}, "geometry": {"type": "Point", "coordinates": [130.25857915927295, 29.746314546929504]}}, {"type": "Feature", "properties": {"norad_id": 40115, "name": "WORLDVIEW-3 (WV-3)", "group": "resource", "lat": -78.55446162524002, "lon": 116.22092339462728, "alt_km": 623.2339429583553, "timestamp": "2025-12-26T23:26:41.810685+00:00", "meta": {"OBJECT_NAME": "WORLDVIEW-3 (WV-3)", "OBJECT_ID": "2014-048A", "EPOCH": "2025-12-26T17:20:33.035712", "MEAN_MOTION": 14.84679588, "ECCENTRICITY": 0.0002101, "INCLINATION": 97.8763, "RA_OF_ASC_NODE": 72.8325, "ARG_OF_PERICENTER": 126.9831, "MEAN_ANOMALY": 233.1576, "EPHEMERIS_TYPE": 0, "CLASSIFICATION_TYPE": "U", "NORAD_CAT_ID": 40115, "ELEMENT_SET_NO": 999, "REV_AT_EPOCH": 61631, "BSTAR": 0.00014316, "MEAN_MOTION_DOT": 1.158e-05, "MEAN_MOTION_DDOT": 0}, "tle": {"line1": "1 40115U 14048A   25360.72260458  .00001158  00000+0  14316-3 0  9990", "line2": "2 40115  97.8763  72.8325 0002101 126.9831 233.1576 14.84679588616318"}}, "geometry": {"type": "Point", "coordinates": [116.22092339462728, -78.55446162524002]}}]}